{
    "links": {
        "self": "http://www.neowsapp.com/rest/v1/neo/3663544?api_key=iIulBulltgU6a56xZRHN4H3l9WmuAYTsLGpBGhQ2"
    },
    "id": "3663544",
    "neo_reference_id": "3663544",
    "name": "(2014 EM12)",
    "designation": "2014 EM12",
    "nasa_jpl_url": "http://ssd.jpl.nasa.gov/sbdb.cgi?sstr=3663544",
    "absolute_magnitude_h": 25.4,
    "estimated_diameter": {
        "kilometers": {
            "estimated_diameter_min": 0.022108281,
            "estimated_diameter_max": 0.0494356193
        },
        "meters": {
            "estimated_diameter_min": 22.1082810359,
            "estimated_diameter_max": 49.435619262
        },
        "miles": {
            "estimated_diameter_min": 0.0137374447,
            "estimated_diameter_max": 0.0307178602
        },
        "feet": {
            "estimated_diameter_min": 72.5337327539,
            "estimated_diameter_max": 162.1903570994
        }
    },
    "is_potentially_hazardous_asteroid": false,
    "close_approach_data": [
        {
            "close_approach_date": "2014-03-03",
            "close_approach_date_full": "2014-Mar-03 05:53",
            "epoch_date_close_approach": 1393825980000,
            "relative_velocity": {
                "kilometers_per_second": "16.8009194773",
                "kilometers_per_hour": "60483.3101183354",
                "miles_per_hour": "37581.9767788068"
            },
            "miss_distance": {
                "astronomical": "0.0428003052",
                "lunar": "16.6493187228",
                "kilometers": "6402834.493269924",
                "miles": "3978536.8669119912"
            },
            "orbiting_body": "Earth"
        }
    ],
    "orbital_data": {
        "orbit_id": "4",
        "orbit_determination_date": "2017-04-06 08:42:09",
        "first_observation_date": "2014-03-08",
        "last_observation_date": "2014-03-10",
        "data_arc_in_days": 2,
        "observations_used": 29,
        "orbit_uncertainty": "8",
        "minimum_orbit_intersection": ".0427452",
        "jupiter_tisserand_invariant": "3.348",
        "epoch_osculation": "2456726.5",
        "eccentricity": ".650849911382013",
        "semi_major_axis": "2.18723744004658",
        "inclination": "10.25691027241664",
        "ascending_node_longitude": "355.1134575142739",
        "orbital_period": "1181.523390825844",
        "perihelion_distance": ".7636741460208426",
        "perihelion_argument": "99.85010398653849",
        "aphelion_distance": "3.610800734072318",
        "perihelion_time": "2456676.740539829444",
        "mean_anomaly": "15.16127890526086",
        "mean_motion": ".3046913863875114",
        "equinox": "J2000",
        "orbit_class": {
            "orbit_class_type": "APO",
            "orbit_class_description": "Near-Earth asteroid orbits which cross the Earth’s orbit similar to that of 1862 Apollo",
            "orbit_class_range": "a (semi-major axis) > 1.0 AU; q (perihelion) < 1.017 AU"
        }
    },
    "is_sentry_object": false
}